{
  "type": "FeatureCollection",
  "features": [
    {
      "type": "Feature",
      "properties": {
        "norad_id": 37487,
        "name": "COSMOS 2251 DEB",
        "group": "cosmos-2251-debris",
        "lat": 51.952651001313754,
        "lon": -156.20804969506332,
        "alt_km": 605.4323290396933,
        "timestamp": "2025-12-17T17:50:19.648446+00:00",
        "meta_object_name": "COSMOS 2251 DEB",
        "meta_object_id": "1993-036BLQ",
        "meta_epoch": "2025-12-12T06:17:24.389376",
        "meta_mean_motion": 14.80982589,
        "meta_eccentricity": 0.00255931,
        "meta_inclination": 73.9026,
        "meta_ra_of_asc_node": 193.0379,
        "meta_arg_of_pericenter": 31.2136,
        "meta_mean_anomaly": 329.0553,
        "meta_ephemeris_type": 0,
        "meta_classification_type": "U",
        "meta_norad_cat_id": 37487,
        "meta_element_set_no": 999,
        "meta_rev_at_epoch": 81238,
        "meta_bstar": 0.0042593386,
        "meta_mean_motion_dot": 0.00033302,
        "meta_mean_motion_ddot": 0,
        "tle_line1": "1 37487U 93036BLQ 25346.26208784  .00033302  00000+0  42593-2 0  9992",
        "tle_line2": "2 37487  73.9026 193.0379 0025593  31.2136 329.0553 14.80982589812383"
      },
      "geometry": {
        "type": "Point",
        "coordinates": [
          -156.20804969506332,
          51.952651001313754
        ]
      }
    },
    {
      "type": "Feature",
      "properties": {
        "norad_id": 37491,
        "name": "COSMOS 2251 DEB",
        "group": "cosmos-2251-debris",
        "lat": 64.4150352341538,
        "lon": -57.21374359145104,
        "alt_km": 1204.8741663894089,
        "timestamp": "2025-12-17T17:50:19.648456+00:00",
        "meta_object_name": "COSMOS 2251 DEB",
        "meta_object_id": "1993-036BLU",
        "meta_epoch": "2025-12-16T01:20:01.568544",
        "meta_mean_motion": 13.75301239,
        "meta_eccentricity": 0.03170701,
        "meta_inclination": 73.906,
        "meta_ra_of_asc_node": 268.5319,
        "meta_arg_of_pericenter": 261.0181,
        "meta_mean_anomaly": 95.4932,
        "meta_ephemeris_type": 0,
        "meta_classification_type": "U",
        "meta_norad_cat_id": 37491,
        "meta_element_set_no": 999,
        "meta_rev_at_epoch": 55792,
        "meta_bstar": 0.00075694547,
        "meta_mean_motion_dot": 1.022e-05,
        "meta_mean_motion_ddot": 0,
        "tle_line1": "1 37491U 93036BLU 25350.05557371  .00001022  00000+0  75695-3 0  9992",
        "tle_line2": "2 37491  73.9060 268.5319 0317070 261.0181  95.4932 13.75301239557926"
      },
      "geometry": {
        "type": "Point",
        "coordinates": [
          -57.21374359145104,
          64.4150352341538
        ]
      }
    },
    {
      "type": "Feature",
      "properties": {
        "norad_id": 37498,
        "name": "COSMOS 2251 DEB",
        "group": "cosmos-2251-debris",
        "lat": 66.96354244796672,
        "lon": -47.90099040076408,
        "alt_km": 708.7537690424624,
        "timestamp": "2025-12-17T17:50:19.648466+00:00",
        "meta_object_name": "COSMOS 2251 DEB",
        "meta_object_id": "1993-036BMB",
        "meta_epoch": "2025-12-17T05:47:45.633696",
        "meta_mean_motion": 14.54797017,
        "meta_eccentricity": 0.00121664,
        "meta_inclination": 74.0349,
        "meta_ra_of_asc_node": 175.365,
        "meta_arg_of_pericenter": 238.527,
        "meta_mean_anomaly": 121.4705,
        "meta_ephemeris_type": 0,
        "meta_classification_type": "U",
        "meta_norad_cat_id": 37498,
        "meta_element_set_no": 999,
        "meta_rev_at_epoch": 65420,
        "meta_bstar": 0.00049858952,
        "meta_mean_motion_dot": 2.112e-05,
        "meta_mean_motion_ddot": 0,
        "tle_line1": "1 37498U 93036BMB 25351.24150039  .00002112  00000+0  49859-3 0  9995",
        "tle_line2": "2 37498  74.0349 175.3650 0012166 238.5270 121.4705 14.54797017654202"
      },
      "geometry": {
        "type": "Point",
        "coordinates": [
          -47.90099040076408,
          66.96354244796672
        ]
      }
    },
    {
      "type": "Feature",
      "properties": {
        "norad_id": 37499,
        "name": "COSMOS 2251 DEB",
        "group": "cosmos-2251-debris",
        "lat": -46.48489612332385,
        "lon": -64.51425136441205,
        "alt_km": 779.0768245081817,
        "timestamp": "2025-12-17T17:50:19.648476+00:00",
        "meta_object_name": "COSMOS 2251 DEB",
        "meta_object_id": "1993-036BMC",
        "meta_epoch": "2025-12-16T15:17:00.283776",
        "meta_mean_motion": 14.34346206,
        "meta_eccentricity": 0.00270928,
        "meta_inclination": 74.0379,
        "meta_ra_of_asc_node": 315.0551,
        "meta_arg_of_pericenter": 29.8963,
        "meta_mean_anomaly": 330.3729,
        "meta_ephemeris_type": 0,
        "meta_classification_type": "U",
        "meta_norad_cat_id": 37499,
        "meta_element_set_no": 999,
        "meta_rev_at_epoch": 85205,
        "meta_bstar": 0.0001595239,
        "meta_mean_motion_dot": 4.24e-06,
        "meta_mean_motion_ddot": 0,
        "tle_line1": "1 37499U 93036BMC 25350.63680884  .00000424  00000+0  15952-3 0  9995",
        "tle_line2": "2 37499  74.0379 315.0551 0027092  29.8963 330.3729 14.34346206852051"
      },
      "geometry": {
        "type": "Point",
        "coordinates": [
          -64.51425136441205,
          -46.48489612332385
        ]
      }
    },
    {
      "type": "Feature",
      "properties": {
        "norad_id": 37528,
        "name": "COSMOS 2251 DEB",
        "group": "cosmos-2251-debris",
        "lat": 36.63634405379523,
        "lon": 125.0237678453625,
        "alt_km": 732.1443836231683,
        "timestamp": "2025-12-17T17:50:19.648486+00:00",
        "meta_object_name": "COSMOS 2251 DEB",
        "meta_object_id": "1993-036BNH",
        "meta_epoch": "2025-12-17T01:06:35.387424",
        "meta_mean_motion": 14.50536544,
        "meta_eccentricity": 0.00211941,
        "meta_inclination": 74.037,
        "meta_ra_of_asc_node": 114.0433,
        "meta_arg_of_pericenter": 261.8302,
        "meta_mean_anomaly": 98.0455,
        "meta_ephemeris_type": 0,
        "meta_classification_type": "U",
        "meta_norad_cat_id": 37528,
        "meta_element_set_no": 999,
        "meta_rev_at_epoch": 85993,
        "meta_bstar": 0.00037344013,
        "meta_mean_motion_dot": 1.439e-05,
        "meta_mean_motion_ddot": 0,
        "tle_line1": "1 37528U 93036BNH 25351.04624291  .00001439  00000+0  37344-3 0  9990",
        "tle_line2": "2 37528  74.0370 114.0433 0021194 261.8302  98.0455 14.50536544859935"
      },
      "geometry": {
        "type": "Point",
        "coordinates": [
          125.0237678453625,
          36.63634405379523
        ]
      }
    },
    {
      "type": "Feature",
      "properties": {
        "norad_id": 37530,
        "name": "COSMOS 2251 DEB",
        "group": "cosmos-2251-debris",
        "lat": 17.914989060695444,
        "lon": -30.21091164580688,
        "alt_km": 758.2231107034504,
        "timestamp": "2025-12-17T17:50:19.648496+00:00",
        "meta_object_name": "COSMOS 2251 DEB",
        "meta_object_id": "1993-036BNK",
        "meta_epoch": "2025-12-16T15:31:15.279168",
        "meta_mean_motion": 14.34508686,
        "meta_eccentricity": 0.00259991,
        "meta_inclination": 74.0359,
        "meta_ra_of_asc_node": 326.4868,
        "meta_arg_of_pericenter": 27.4409,
        "meta_mean_anomaly": 90.6459,
        "meta_ephemeris_type": 0,
        "meta_classification_type": "U",
        "meta_norad_cat_id": 37530,
        "meta_element_set_no": 999,
        "meta_rev_at_epoch": 85288,
        "meta_bstar": 0.00021920121,
        "meta_mean_motion_dot": 5.94e-06,
        "meta_mean_motion_ddot": 0,
        "tle_line1": "1 37530U 93036BNK 25350.64670462  .00000594  00000+0  21920-3 0  9993",
        "tle_line2": "2 37530  74.0359 326.4868 0025999  27.4409  90.6459 14.34508686852884"
      },
      "geometry": {
        "type": "Point",
        "coordinates": [
          -30.21091164580688,
          17.914989060695444
        ]
      }
    },
    {
      "type": "Feature",
      "properties": {
        "norad_id": 37532,
        "name": "COSMOS 2251 DEB",
        "group": "cosmos-2251-debris",
        "lat": -55.37538996612891,
        "lon": -178.01911102661174,
        "alt_km": 745.8433714745661,
        "timestamp": "2025-12-17T17:50:19.648507+00:00",
        "meta_object_name": "COSMOS 2251 DEB",
        "meta_object_id": "1993-036BNM",
        "meta_epoch": "2025-12-14T09:22:45.259968",
        "meta_mean_motion": 14.42410404,
        "meta_eccentricity": 0.00160101,
        "meta_inclination": 74.0496,
        "meta_ra_of_asc_node": 212.6604,
        "meta_arg_of_pericenter": 313.2255,
        "meta_mean_anomaly": 226.6563,
        "meta_ephemeris_type": 0,
        "meta_classification_type": "U",
        "meta_norad_cat_id": 37532,
        "meta_element_set_no": 999,
        "meta_rev_at_epoch": 84939,
        "meta_bstar": 0.00027461522,
        "meta_mean_motion_dot": 8.83e-06,
        "meta_mean_motion_ddot": 0,
        "tle_line1": "1 37532U 93036BNM 25348.39080162  .00000883  00000+0  27462-3 0  9994",
        "tle_line2": "2 37532  74.0496 212.6604 0016010 313.2255 226.6563 14.42410404849399"
      },
      "geometry": {
        "type": "Point",
        "coordinates": [
          -178.01911102661174,
          -55.37538996612891
        ]
      }
    }
  ]
}